{
  "links" : {
    "next" : "https://api.nasa.gov/neo/rest/v1/feed?start_date=2014-11-23&end_date=2014-11-23&detailed=true&api_key=t0TVs3DtDT2H8Oy2Zy8m2eVrNsAVKAexjcZXUckd",
    "prev" : "https://api.nasa.gov/neo/rest/v1/feed?start_date=2014-11-21&end_date=2014-11-21&detailed=true&api_key=t0TVs3DtDT2H8Oy2Zy8m2eVrNsAVKAexjcZXUckd",
    "self" : "https://api.nasa.gov/neo/rest/v1/feed?start_date=2014-11-22&end_date=2014-11-22&detailed=true&api_key=t0TVs3DtDT2H8Oy2Zy8m2eVrNsAVKAexjcZXUckd"
  },
  "element_count" : 16,
  "near_earth_objects" : {
    "2014-11-22" : [ {
      "links" : {
        "self" : "https://api.nasa.gov/neo/rest/v1/neo/3696195?api_key=t0TVs3DtDT2H8Oy2Zy8m2eVrNsAVKAexjcZXUckd"
      },
      "neo_reference_id" : "3696195",
      "name" : "(2014 WP4)",
      "nasa_jpl_url" : "http://ssd.jpl.nasa.gov/sbdb.cgi?sstr=3696195",
      "absolute_magnitude_h" : 24.3,
      "estimated_diameter" : {
        "kilometers" : {
          "estimated_diameter_min" : 0.0366906138,
          "estimated_diameter_max" : 0.0820427065
        },
        "meters" : {
          "estimated_diameter_min" : 36.6906137531,
          "estimated_diameter_max" : 82.0427064882
        },
        "miles" : {
          "estimated_diameter_min" : 0.0227984834,
          "estimated_diameter_max" : 0.0509789586
        },
        "feet" : {
          "estimated_diameter_min" : 120.3760332259,
          "estimated_diameter_max" : 269.1689931548
        }
      },
      "is_potentially_hazardous_asteroid" : false,
      "close_approach_data" : [ {
        "close_approach_date" : "2014-11-22",
        "epoch_date_close_approach" : 1416643200000,
        "relative_velocity" : {
          "kilometers_per_second" : "8.0733191073",
          "kilometers_per_hour" : "29063.9487862146",
          "miles_per_hour" : "18059.2075110787"
        },
        "miss_distance" : {
          "astronomical" : "0.0427570022",
          "lunar" : "16.6324729919",
          "kilometers" : "6396356.5",
          "miles" : "3974511.5"
        },
        "orbiting_body" : "Earth"
      } ],
      "orbital_data" : {
        "orbit_id" : "10",
        "orbit_determination_date" : "2017-04-06 08:37:31",
        "orbit_uncertainty" : "7",
        "minimum_orbit_intersection" : ".0403686",
        "jupiter_tisserand_invariant" : "3.317",
        "epoch_osculation" : "2458000.5",
        "eccentricity" : ".5625767858040285",
        "semi_major_axis" : "2.346464256336059",
        "inclination" : "8.026938726099225",
        "ascending_node_longitude" : "63.21176125842119",
        "orbital_period" : "1312.862795789831",
        "perihelion_distance" : "1.026397937002479",
        "perihelion_argument" : "1.798436109537978",
        "aphelion_distance" : "3.666530575669639",
        "perihelion_time" : "2458300.572394194314",
        "mean_anomaly" : "277.717173297638",
        "mean_motion" : ".2742099183208406",
        "equinox" : "J2000"
      }
    }, {
      "links" : {
        "self" : "https://api.nasa.gov/neo/rest/v1/neo/3697566?api_key=t0TVs3DtDT2H8Oy2Zy8m2eVrNsAVKAexjcZXUckd"
      },
      "neo_reference_id" : "3697566",
      "name" : "(2014 WD120)",
      "nasa_jpl_url" : "http://ssd.jpl.nasa.gov/sbdb.cgi?sstr=3697566",
      "absolute_magnitude_h" : 24.2,
      "estimated_diameter" : {
        "kilometers" : {
          "estimated_diameter_min" : 0.0384197891,
          "estimated_diameter_max" : 0.0859092601
        },
        "meters" : {
          "estimated_diameter_min" : 38.4197891064,
          "estimated_diameter_max" : 85.9092601232
        },
        "miles" : {
          "estimated_diameter_min" : 0.0238729428,
          "estimated_diameter_max" : 0.0533815229
        },
        "feet" : {
          "estimated_diameter_min" : 126.0491808919,
          "estimated_diameter_max" : 281.8545369825
        }
      },
      "is_potentially_hazardous_asteroid" : false,
      "close_approach_data" : [ {
        "close_approach_date" : "2014-11-22",
        "epoch_date_close_approach" : 1416643200000,
        "relative_velocity" : {
          "kilometers_per_second" : "18.3596238642",
          "kilometers_per_hour" : "66094.6459112467",
          "miles_per_hour" : "41068.6426219077"
        },
        "miss_distance" : {
          "astronomical" : "0.0799427712",
          "lunar" : "31.097738266",
          "kilometers" : "11959268",
          "miles" : "7431145"
        },
        "orbiting_body" : "Earth"
      } ],
      "orbital_data" : {
        "orbit_id" : "6",
        "orbit_determination_date" : "2017-04-06 08:37:21",
        "orbit_uncertainty" : "8",
        "minimum_orbit_intersection" : ".0797304",
        "jupiter_tisserand_invariant" : "3.085",
        "epoch_osculation" : "2456983.5",
        "eccentricity" : ".5675170535282704",
        "semi_major_axis" : "2.468177716368154",
        "inclination" : "30.52738730266295",
        "ascending_node_longitude" : "60.05007642316668",
        "orbital_period" : "1416.325477165552",
        "perihelion_distance" : "1.067444771190764",
        "perihelion_argument" : "359.5506044078554",
        "aphelion_distance" : "3.868910661545543",
        "perihelion_time" : "2456983.389120519017",
        "mean_anomaly" : ".02818322045139219",
        "mean_motion" : ".2541788634067761",
        "equinox" : "J2000"
      }
    }, {
      "links" : {
        "self" : "https://api.nasa.gov/neo/rest/v1/neo/3698846?api_key=t0TVs3DtDT2H8Oy2Zy8m2eVrNsAVKAexjcZXUckd"
      },
      "neo_reference_id" : "3698846",
      "name" : "(2014 WV202)",
      "nasa_jpl_url" : "http://ssd.jpl.nasa.gov/sbdb.cgi?sstr=3698846",
      "absolute_magnitude_h" : 23.8,
      "estimated_diameter" : {
        "kilometers" : {
          "estimated_diameter_min" : 0.046190746,
          "estimated_diameter_max" : 0.1032856481
        },
        "meters" : {
          "estimated_diameter_min" : 46.1907460282,
          "estimated_diameter_max" : 103.2856480504
        },
        "miles" : {
          "estimated_diameter_min" : 0.0287015901,
          "estimated_diameter_max" : 0.0641787064
        },
        "feet" : {
          "estimated_diameter_min" : 151.544447199,
          "estimated_diameter_max" : 338.8636855496
        }
      },
      "is_potentially_hazardous_asteroid" : false,
      "close_approach_data" : [ {
        "close_approach_date" : "2014-11-22",
        "epoch_date_close_approach" : 1416643200000,
        "relative_velocity" : {
          "kilometers_per_second" : "11.4557793121",
          "kilometers_per_hour" : "41240.8055234506",
          "miles_per_hour" : "25625.4327431685"
        },
        "miss_distance" : {
          "astronomical" : "0.1057908701",
          "lunar" : "41.1526489258",
          "kilometers" : "15826089",
          "miles" : "9833876"
        },
        "orbiting_body" : "Earth"
      } ],
      "orbital_data" : {
        "orbit_id" : "4",
        "orbit_determination_date" : "2017-04-06 08:37:12",
        "orbit_uncertainty" : "8",
        "minimum_orbit_intersection" : ".105579",
        "jupiter_tisserand_invariant" : "5.111",
        "epoch_osculation" : "2456986.5",
        "eccentricity" : ".1858227502223301",
        "semi_major_axis" : "1.23543136574983",
        "inclination" : "20.07794917409628",
        "ascending_node_longitude" : "66.36279323100869",
        "orbital_period" : "501.5640051591473",
        "perihelion_distance" : "1.005860111655267",
        "perihelion_argument" : "295.6516202514057",
        "aphelion_distance" : "1.465002619844393",
        "perihelion_time" : "2456927.492109955896",
        "mean_anomaly" : "42.35319958643573",
        "mean_motion" : ".7177548554062831",
        "equinox" : "J2000"
      }
    } ]
  }
}